{"type":"FeatureCollection","features":[{"type":"Feature","geometry":{"type":"Polygon","coordinates":[[[106.50782700058673,11.14092575524304],[106.50660517763387,11.141603506180866],[106.50451833259301,11.14113976839611],[106.50241811444417,11.140051786787952],[106.5000325170557,11.140118632306338],[106.49870368115846,11.141081799826123],[106.4969334111213,11.142259038097558],[106.49553771819063,11.143240016751777],[106.4938655415497,11.143931204951366],[106.49228703982611,11.144430614911244],[106.49050343070257,11.144729382367027],[106.48902292885005,11.144840883013961],[106.48742657642421,11.144461836189711],[106.48574996998732,11.143779602752712],[106.48397082050354,11.143199877612933],[106.48177247622317,11.142531017767258],[106.479797059955,11.142539965160545],[106.47692987217692,11.14294124682355],[106.47297465536445,11.14365025569497],[106.47148978306718,11.14395344972134],[106.47059793000966,11.14493005558432],[106.46951886747694,11.146111649069649],[106.46853786550238,11.146798352358555],[106.4668567362802,11.148372475614307],[106.46716447044777,11.149050233919128],[106.46806520663806,11.149732482571475],[106.46914875551957,11.150798205738155],[106.47004500638594,11.151578569547828],[106.47064259896811,11.152947463611024],[106.47065590079258,11.154610708220856],[106.46996474629967,11.155698712286128],[106.46858244414581,11.156282861866442],[106.46759254883918,11.156291810436633],[106.46630831628723,11.156782351562322],[106.46523367969797,11.158062115518478],[106.46423930648292,11.159141138221544],[106.46346342183888,11.159921539087641],[106.462549314242,11.159729799787787],[106.4615727486812,11.159150118016527],[106.46038220045317,11.158668541011954],[106.45928970967385,11.15886913262494],[106.45780924817358,11.159560353743132],[106.45661872135192,11.160251519745113],[106.45543700863023,11.160162289398915],[106.45384064208758,11.159381963833187],[106.45275267894415,11.158409922396473],[106.45185191876601,11.156951747053828],[106.4512498863665,11.15519045789584],[106.45104031227639,11.153139199105397],[106.45182963122426,11.151962015051241],[106.45281954187179,11.15146258839479],[106.45401013693798,11.151850510118035],[106.45510260015037,11.152831520752104],[106.4561905755198,11.153411247177925],[106.45697991390973,11.15251942809563],[106.45746593861925,11.150659947571867],[106.45775577452795,11.148421521101017],[106.45744365047918,11.146071579779447],[106.45664100940412,11.143922272071325],[106.45584277507957,11.141781935329597],[106.45474141083419,11.140408532447433],[106.45334572869515,11.13856245824306],[106.45204810315738,11.137300497853579],[106.4508575192665,11.136520183753657],[106.44937262406039,11.136038559833327],[106.44812858423225,11.136100981647004],[106.44815976826511,11.134763236619738],[106.44802155203956,11.133661851439289],[106.448083920078,11.131410026607128],[106.44792791014942,11.130870514751633],[106.44725902788836,11.130139171468839],[106.44650099986274,11.129372233516756],[106.44565373717745,11.128181621858035],[106.44486893487519,11.12699996372351],[106.44481546454058,11.126380175064456],[106.44364271526885,11.122951074169272],[106.442496752386,11.119673680988319],[106.44233616351687,11.117510984988087],[106.44191703344136,11.116048428358464],[106.44068184475324,11.114929228699594],[106.44007094802448,11.1150094948667],[106.43892500476682,11.113818851128515],[106.43821598248974,11.113132192676744],[106.43723494765865,11.112093217525102],[106.43679794517148,11.111112216666772],[106.43657499607549,11.109569390883168],[106.43541118949224,11.106809168703807],[106.43583479959861,11.10598866257992],[106.43551821521419,11.105087976301965],[106.43495190509137,11.103438076479215],[106.43467099715043,11.102510626335675],[106.43454168616867,11.101971071829924],[106.4344167784863,11.101239784216435],[106.43419832501466,11.100200772212418],[106.43382818573943,11.099772728959445],[106.4332752695187,11.099857462112585],[106.43298987078927,11.099790558919219],[106.43287844317994,11.099603276182194],[106.43277591185984,11.098550886419215],[106.432615330481,11.098238798136272],[106.43242806057953,11.098171852251326],[106.43157186904902,11.098069298798514],[106.43145594918172,11.097833018605538],[106.43151840212546,11.097061598332624],[106.43134452239342,11.095590091625475],[106.43118394211872,11.094622436905352],[106.43109030779077,11.094198869339461],[106.4309387137234,11.092152071794667],[106.43084507950577,11.09188009015948],[106.4305418918387,11.091692809026068],[106.42957419236714,11.091550115722981],[106.42881622865697,11.091581374845902],[106.4279466630218,11.091652648560013],[106.42743833228857,11.091732943844232],[106.42693889877778,11.091701730380176],[106.42639040391111,11.09146983394792],[106.4261184034711,11.091211196298266],[106.42603366736442,11.090863426576313],[106.42608722273641,11.089820024784363],[106.426198736567,11.089271536423702],[106.4263057575517,11.088031872877009],[106.4263324454129,11.087612728747951],[106.42639040391111,11.086480147846249],[106.42649302194293,11.085588307869745],[106.42659555016715,11.084388841052183],[106.42666689762032,11.082301937657734],[106.42659555016715,11.081731201467726],[106.42650641081421,11.081392305787288],[106.42616306291767,11.081089079090383],[106.42590436174963,11.08017940858882],[106.42597130592516,11.079568528934523],[106.42598020186419,11.077891882958513],[106.4261184034711,11.07728098052157],[106.42643946646642,11.076161776515802],[106.4271172677511,11.0745520020653],[106.42714844864022,11.073669094136063],[106.42706380197225,11.073018117143304],[106.42693440585852,11.072121781639382],[106.42648403612375,11.070850988883391],[106.42632354945879,11.070521015893254],[106.42579734097153,11.069691638756902],[106.42562795891223,11.06923231566651],[106.42546298002055,11.068318207740074],[106.42545399424588,11.06747989237853],[106.42555211892616,11.066828898112275],[106.42511064808728,11.06592365675183],[106.42417873704602,11.066008365517781],[106.4234028216298,11.065990532783717],[106.42273842108474,11.065892488961072],[106.4221587571565,11.065754190244771],[106.42180652068107,11.06553124938301],[106.4216771278401,11.065263726583881],[106.42160137915185,11.064808893678686],[106.42131599644154,11.064318385572825],[106.42067828970511,11.063640572968497],[106.42047323914568,11.062583774937668],[106.42122676949701,11.06183910733518],[106.42146309069257,11.061491301132532],[106.42082996614751,11.06084921197588],[106.42121338096584,11.060349810749093],[106.42199818397488,11.059449066736674],[106.42222561026925,11.058579511665897],[106.4217083977693,11.058352130072237],[106.42135607220149,11.058240676157743],[106.42112873671492,11.05805778805344],[106.42121338096584,11.057790256018903],[106.42122676949701,11.057562890734788],[106.42130260790461,11.057058964608766],[106.42133378792147,11.056572954970475],[106.42124015802904,11.055609762889196],[106.42098155284485,11.05424079764679],[106.42093698436751,11.053942062930448],[106.42080768192389,11.05329100467736],[106.42051780752348,11.052189625942283],[106.42059364567224,11.051721439437687],[106.42130260790461,11.050410431029814],[106.42189565801843,11.049639004189885],[106.42431693745534,11.047159780265948],[106.42417873704602,11.046932338156612],[106.42394241276185,11.04673169352953],[106.42350984117509,11.046580054201122],[106.42279637858086,11.046209964917065],[106.42295695237932,11.045871103944474],[106.42331808663009,11.045090723442861],[106.42392902405571,11.044359494010875],[106.42317099106577,11.043632643532982],[106.4222925532599,11.043097503077442],[106.42253777145952,11.04258027234693],[106.42253327863537,11.042348431042582],[106.42236389923609,11.04216109856234],[106.42188226944414,11.041996155221055],[106.42193582374644,11.041670582357579],[106.42223899886565,11.041470000186058],[106.42222561026925,11.041171163638614],[106.42211859138538,11.040979459810307],[106.42176186217061,11.040680707816334],[106.4215166448868,11.040337319667099],[106.42111975112769,11.039918158841024],[106.42088343032273,11.039539157097481],[106.42115102097297,11.039200235580955],[106.42095037288088,11.03897284216515],[106.42050891181827,11.038442196112205],[106.42021903783484,11.037492468230578],[106.42000500218981,11.03702873262616],[106.41992916425602,11.036538159273233],[106.41999610650657,11.036230549541525],[106.41995153824071,11.035958479271041],[106.41971512890973,11.035851526367203],[106.41921131106244,11.035820275585548],[106.41870291184146,11.035369920899132],[106.41819011098984,11.035298538583776],[106.41783788124557,11.035191571578741],[106.41720467789966,11.034821448439915],[106.41665620873246,11.034411179591704],[106.41546564745846,11.033430230665454],[106.41507766073947,11.033131452390975],[106.41427509301587,11.032342166003879],[106.41345015511116,11.031642123347863],[106.4124825352544,11.030808243070776],[106.41182697514255,11.029969946203291],[106.41142120459868,11.029332302759327],[106.41133207176009,11.028681237430911],[106.4110422105963,11.027838490583688],[106.4107122761257,11.026928813098534],[106.41057399492286,11.025863069904627],[106.41042241582858,11.025439528606931],[106.40997199206087,11.024757242252726],[106.4096063884896,11.024110641356769],[106.40959749325225,11.023811928738937],[106.40975356429058,11.02330807845184],[106.40978025002393,11.023000395339995],[106.40962417896549,11.022732842567757],[106.40939236379339,11.022621370102422],[106.40911140055836,11.022701626232008],[106.40883493023175,11.022630240042751],[106.40875918623198,11.022442994308244],[106.40882154250022,11.021979196214636],[106.40899549322671,11.02161358176551],[106.40892855452594,11.02110079742874],[106.40883493023175,11.020449777268004],[106.40901328365014,11.019370688578775],[106.40928085899094,11.018242478271198],[106.40939236379339,11.017417584466916],[106.40933881272848,11.01680224343092],[106.40921841273376,11.016499036998889],[106.4086075186146,11.015709722488761],[106.40847822385548,11.015089899259788],[106.40928085899094,11.014278325074457],[106.40976686223135,11.013569402802412],[106.41018610720681,11.013230482675182],[106.41063644158847,11.012838054020216],[106.41105559847126,11.01232975187295],[106.411430189766,11.011518163678565],[106.41182697514255,11.010559491192923],[106.41233086491265,11.00935105721624],[106.41246016207498,11.008940849916227],[106.41217038918607,11.008642018017257],[106.41110016482635,11.00766103799152],[106.4103465813974,11.007331096578675],[106.40822403724319,11.00655963623324],[106.40611040992063,11.005832861552014],[106.4060970223652,11.005476072012408],[106.40614167750316,11.005097066772274],[106.40570024796082,11.005070298315648],[106.40542818479138,11.004923182658661],[106.40525872951046,11.004347914096451],[106.40512054179656,11.003589868976224],[106.40484407679664,11.003549743648033],[106.40357766156943,11.003420444617058],[106.40300694615065,11.003233171199133],[106.40077288715771,11.002550922378571],[106.39971161650934,11.0021808605394],[106.3984541274529,11.001672495670626],[106.39753563338407,11.00137819773301],[106.39565831715649,11.000838597007455],[106.39449447051886,11.00048191490633],[106.39267513098912,10.999928998347231],[106.39126611968712,10.999532096602588],[106.38986152027275,10.999331427221193],[106.38884926947563,10.99922889722716],[106.38456852860585,10.998979192674323],[106.38195105674056,10.998800806904566],[106.38025661292824,10.99864922710421],[106.37963232875451,10.999291339184339],[106.37232828164751,10.998631359644184],[106.3690731483662,10.998533290683215],[106.3654791314523,10.996901230290696],[106.36483701567339,10.995991568763364],[106.36451595853664,10.995541242704693],[106.36464522574539,10.994618203223984],[106.3597848706234,10.99132739280192],[106.35619972957065,10.99031960236975],[106.3615104964145,10.983211783105551],[106.37313984960066,10.967609419481523],[106.391952790257,10.970240280619349],[106.40236031095083,10.971448715797964],[106.41339220022432,10.972670472088687],[106.41654919271893,10.969870151792492],[106.41900617209653,10.967979501381008],[106.42598909780361,10.962811428539625],[106.44136858899068,10.952078344821858],[106.44412430553243,10.949888927047622],[106.4549420914596,10.941929438233204],[106.46064975191864,10.938812495233707],[106.46878754197822,10.934870723883563],[106.47325112085394,10.93297114865116],[106.48748904606916,10.925867789064545],[106.49021354958,10.924481011055411],[106.49642949722212,10.921163452167812],[106.49767364358627,10.920820052776982],[106.50005921431126,10.920053124458754],[106.50112054531773,10.919999558794844],[106.50312708405468,10.919901480868578],[106.50829965882957,10.91932180635938],[106.51316896320746,10.918822409663774],[106.51863143360394,10.918251589195654],[106.52149855877559,10.918149068262794],[106.52266688767082,10.918113429310374],[106.5253200142523,10.918010851117032],[106.53008236619371,10.917457906648202],[106.53487593191143,10.917275076417681],[106.54032934109495,10.917239423586436],[106.54606826184897,10.917819069483842],[106.55075033808559,10.918046466796259],[106.5579071228349,10.91811338326347],[106.5630172806468,10.91904086316814],[106.56567936223422,10.919798928197405],[106.5664909593274,10.919972841174491],[106.56823887980877,10.920320665633076],[106.57186856469534,10.920481136192812],[106.57752272666437,10.920369676701911],[106.58096516723586,10.920262712600955],[106.58232967740844,10.920182389881715],[106.58413114267073,10.920070945581886],[106.58409103600658,10.920400873246727],[106.58405083942468,10.920659537439454],[106.58397062613389,10.92094048483008],[106.58381451604843,10.921462178828365],[106.5824143863133,10.92459695080753],[106.58223597608978,10.924868949798404],[106.5817544310907,10.925448588603832],[106.5810944778976,10.926081832978115],[106.58100976951371,10.926661473792986],[106.5810677704736,10.927629140751263],[106.58097856590302,10.929470710935242],[106.5842961555942,10.928837493046988],[106.58629826255104,10.928431733021647],[106.58838509942862,10.927651409550732],[106.59191674336088,10.92642070620603],[106.59889072337955,10.923990497664457],[106.60005012258287,10.923749684046923],[106.600669934273,10.9235624448543],[106.60040238620483,10.922082021637488],[106.60021955438837,10.921083121274584],[106.59986288440503,10.919821216761724],[106.59944811914592,10.91835866314063],[106.6046072909961,10.917448967970152],[106.6069394674913,10.917181435960453],[106.6105289748849,10.91673109540424],[106.6179712412329,10.915629660107092],[106.62268897339321,10.91497866989026],[106.62490073244135,10.915660904590268],[106.62742452722543,10.916142491914034],[106.62925722001229,10.916320816958653],[106.63127278623112,10.916369854903309],[106.63220021022774,10.915990882085158],[106.63375644937763,10.915879381141403],[106.63492026307588,10.915932924368477],[106.63590131097345,10.915799096240917],[106.63646761697723,10.91571885654096],[106.6369491941156,10.915701006170782],[106.63883980397266,10.915852653267784],[106.63996802530936,10.916418965869719],[106.6419388962375,10.917101159466158],[106.64251862047134,10.917399961479347],[106.6437671241501,10.91817139929072],[106.64479723503385,10.91913900850341],[106.64612598813517,10.919740996061025],[106.64775806641661,10.919562579445119],[106.64935885350278,10.919451152271524],[106.6505895857681,10.919758829663317],[106.65116033774416,10.91979891015917],[106.65183813576954,10.919589323861642],[106.65228853304954,10.91945115177573],[106.6524891297014,10.919308399217998],[106.65289940889969,10.919049773320234],[106.65334531067198,10.919232632693317],[106.65493723332175,10.920748716936153],[106.6555704254307,10.921600424259239],[106.65579333395864,10.922260389708851],[106.65608316935892,10.923522258162725],[106.6562258383226,10.92427143590587],[106.65659150667926,10.924810930699831],[106.65731834744838,10.92576964512174],[106.65616790715585,10.926532157387639],[106.65409885705708,10.928262308326845],[106.65323826537809,10.929109516780512],[106.65297524002227,10.929372641989259],[106.65217699059664,10.930429414566262],[106.65067432142789,10.932440470095493],[106.65027744938656,10.933118223326257],[106.64996972113272,10.934099285396945],[106.64980474802407,10.935182796895463],[106.64975122624087,10.936061313145224],[106.64985826982041,10.937318758821554],[106.65011688372776,10.938540551915237],[106.65141895319832,10.942611687266387],[106.65178461348641,10.944172415704413],[106.6519986127443,10.945443226183938],[106.65222160757095,10.950999225657185],[106.65215468211291,10.952198784753019],[106.65178461348641,10.954129524087826],[106.65103998046537,10.957001241565164],[106.65022842512523,10.959248603708799],[106.64890405462553,10.962918418369371],[106.64869896367063,10.965121267758771],[106.6486142287799,10.966102257219818],[106.64824857381777,10.96895158168873],[106.6486142287799,10.970360670830415],[106.6487970115153,10.971132141282327],[106.64942128047981,10.972171103629366],[106.65009457545513,10.974342658260369],[106.64987167275973,10.975582323307895],[106.64967989386793,10.976393839404967],[106.64935885350278,10.97773155500026],[106.6490423112248,10.978650181583637],[106.6487792009861,10.979368019093178],[106.6485830154049,10.979773864868234],[106.64827528954696,10.980161795368087],[106.64769563991675,10.980652304716472],[106.64745483930622,10.980812777696919],[106.64650504226154,10.98108035914749],[106.64621521961188,10.981098229286319],[106.64576933244722,10.981151728005178],[106.6438295495223,10.980942161676928],[106.64331233696528,10.980861877209405],[106.64177842668411,10.980500666239807],[106.64037378345512,10.979809541802124],[106.6387729725809,10.97895337013538],[106.63683325211818,10.978262213094592],[106.63434505643731,10.978101678587437],[106.63395711887274,10.978150749779822],[106.63292705940849,10.978280079230242],[106.63099629574027,10.978730415035352],[106.62932413841679,10.979261013301251],[106.6280889395301,10.979528566110618],[106.62702769767235,10.980148415601525],[106.62648812937142,10.980603198167962],[106.62597536534224,10.981022417925804],[106.62491404389763,10.981989980455943],[106.62370117571781,10.983479325870109],[106.62291643518799,10.98436225521616],[106.62255073358173,10.984790364317327],[106.62149842301226,10.985927422529512],[106.62000460049825,10.987073412904337],[106.61876495779724,10.987693218290772],[106.617538723144,10.98840216979926],[106.61657106935954,10.989360946996788],[106.61596020584929,10.990680794664819],[106.61570154272773,10.992072055480662],[106.61596470277695,10.993213575422352],[106.61633480024412,10.994600325847674],[106.61728455508864,10.996468677301005],[106.61776168255818,10.997391736758248],[106.61917076619055,10.999331422181552],[106.62026767584442,11.001913304268612],[106.62027657993868,11.003371416814398],[106.61991987681385,11.005311110700484],[106.61918857428908,11.007139319484828],[106.61785090236397,11.008967583251287],[106.61630799851073,11.010332069921727],[106.61564802935982,11.010920632489329],[106.61308408002711,11.011299640597178],[106.60926708247561,11.011321969843785],[106.60508888715333,11.011701025323019],[106.60263640028508,11.012931752240927],[106.60209689289165,11.013020917376446],[106.59969336294829,11.013440048080243],[106.597249840636,11.016111078277598],[106.59603694800784,11.019522264976079],[106.59483296525866,11.022679314660783],[106.59471704585289,11.025591093353682],[106.5950782038039,11.027628910579073],[106.59522982557453,11.028511796761434],[106.59610826270374,11.0317714555382],[106.59895322573718,11.034919578160997],[106.60033997335876,11.036471300794652],[106.6014324705731,11.037701989255684],[106.60266320032082,11.03939199688582],[106.60180703975227,11.040729731477683],[106.60119612809832,11.042192296611772],[106.59998321324414,11.044020591698207],[106.59790085033006,11.044890097385503],[106.5956890981022,11.045010465536233],[106.59335254694452,11.044051776758328],[106.5919880566911,11.04211207258549],[106.59098922257955,11.038972883811473],[106.5903471366568,11.036663088261163],[106.5892814041574,11.035940644860073],[106.58875074310555,11.035579464518733],[106.58555808150646,11.035958541758935],[106.58407763714511,11.036453449334301],[106.58297623560709,11.036819107846226],[106.58177223609664,11.038651828767978],[106.58080465306668,11.040841192015888],[106.58032302135592,11.043391847143614],[106.5795962594956,11.045701682300537],[106.57837888044614,11.047770670423745],[106.57655516280397,11.049598940522914],[106.5750791867176,11.051431553431392],[106.57433895445715,11.052301144155424],[106.57361661900345,11.05313939291547],[106.5718908648868,11.053629932308217],[106.57129784244034,11.053340110211854],[106.57041941690954,11.052907586665663],[106.56979960259908,11.052189669695235],[106.56918419611385,11.051458331899486],[106.56855107740762,11.049161916532064],[106.56817647631108,11.046981401454058],[106.5674273660034,11.045162059071119],[106.56533156154192,11.044319359150379],[106.56225479091249,11.044207848820996],[106.55796071173593,11.04484106398927],[106.55599870136095,11.044970335688978],[106.55329196407045,11.044872226201843],[106.55187396177149,11.044939130236273],[106.55071464332758,11.045001578706277],[106.54965333390776,11.045781902310145],[106.5487526096749,11.046468625834226],[106.54778499620805,11.04828789976646],[106.54667470068226,11.050120615256704],[106.54572489865524,11.051819572236237],[106.54363362286544,11.053050242828173],[106.54186333709872,11.053438225014983],[106.54081097257276,11.053670080473626],[106.53822912771825,11.054410301426737],[106.53553583220717,11.056118075815405],[106.53357834374937,11.05746918988043],[106.53211129560367,11.058931791306154],[106.5310053972119,11.061370926375064],[106.52980142105346,11.063921552979926],[106.52857965115123,11.065629406868252],[106.52787068620385,11.066280431765062],[106.52699216990196,11.067091998845592],[106.52540029540248,11.068679405349604],[106.52430782708295,11.07099367463607],[106.52358098635861,11.073428299984682],[106.52408487505602,11.075122805095274],[106.52482511264812,11.077660013732459],[106.52657305094189,11.080812609767131],[106.52905235569966,11.083349840056018],[106.53138892330873,11.085521389993641],[106.5331190247917,11.087331789556671],[106.53386810448725,11.089142175721754],[106.5337522181255,11.090729657535377],[106.53301203930899,11.091269215644095],[106.53240114424433,11.091710676409225],[106.5319685291109,11.091759697878164],[106.53030981965152,11.091960351919873],[106.52761203955102,11.091371779833066],[106.52551177207798,11.090038524518379],[106.52430782708295,11.089601514299057],[106.5235363960873,11.089320576145365],[106.52268028267623,11.08981104101173],[106.52178398787055,11.090408552199568],[106.5212177149011,11.090792102135854],[106.52012077321781,11.09262027531329],[106.51877410122366,11.095050476867812],[106.5173204602204,11.097369267490203],[106.51658465378159,11.099670120908806],[106.51685218677378,11.101012362010232],[106.51832371416907,11.101971060103246],[106.51928687838915,11.102198464611337],[106.52089659681683,11.102573040012285],[106.52224768735812,11.103001068293876],[106.5238485281834,11.103518390122623],[106.52478942224101,11.104249605636294],[106.52571243024146,11.104972057567467],[106.52614053758484,11.10622944947273],[106.5264570786603,11.107148055270397],[106.52674691958202,11.108748854145471],[106.52709034203028,11.11067070713736],[106.52751836225224,11.11352009223641],[106.52760313930683,11.114059697892323],[106.52739798428698,11.115281460123096],[106.52713043798586,11.116980354285372],[106.52703676089966,11.118068378000277],[106.52688518750614,11.120012527434408],[106.52567233455382,11.121109522014681],[106.52358098635861,11.120882092114314],[106.52001819930219,11.12163120431298],[106.51708852584404,11.12466785131709],[106.51464046500377,11.12724080144336],[106.51270078883913,11.1307723744354],[106.51217463328244,11.132083330913739],[106.51172426026764,11.133202567368434],[106.51148792718696,11.13395168357219],[106.51100186755009,11.135507956087558],[106.5097801161436,11.136970516637248],[106.50868314383277,11.138923651244347],[106.50782700058673,11.14092575524304]]]},"id":"00010000000000000cb2","properties":{"ADM0_CODE":264,"ADM0_NAME":"Viet Nam","ADM1_CODE":3352,"ADM1_NAME":"Ho Chi Minh City","ADM2_CODE":32636,"ADM2_NAME":"Cu Chi","DISP_AREA":"NO","EXP2_YEAR":3000,"STATUS":"Member State","STR2_YEAR":1000,"Shape_Area":0.0357811767379,"Shape_Leng":1.06905101052}}]}