{"type":"FeatureCollection","features":[{"type":"Feature","geometry":{"type":"MultiPoint","coordinates":[]},"id":"00000000000000000000","properties":{"DAN_SO":40898,"DT_KM2":77.699,"OBJECTID":1,"Shape_Area":7.79554584335E7,"Shape_Leng":42981.2296077,"XA_MOI":"An Nhơn Tây","area_km2":78.27929988169157,"diff_max":1.1077910363674164,"diff_mean":-0.002329327304801635,"diff_min":-0.9500412344932556,"diff_stdDev":0.16517209673711142,"period":"2019_2025","xa_name":"An Nhơn Tây"}},{"type":"Feature","geometry":{"type":"MultiPoint","coordinates":[]},"id":"00000000000000000001","properties":{"DAN_SO":99675,"DT_KM2":54.437,"OBJECTID":2,"Shape_Area":5.38878132298E7,"Shape_Leng":50040.4631273,"XA_MOI":"Bình Mỹ","area_km2":54.10552891234025,"diff_max":0.7445570826530457,"diff_mean":0.034251849916053574,"diff_min":-0.8989860564470291,"diff_stdDev":0.13926364231448346,"period":"2019_2025","xa_name":"Bình Mỹ"}},{"type":"Feature","geometry":{"type":"MultiPoint","coordinates":[]},"id":"00000000000000000002","properties":{"DAN_SO":128661,"DT_KM2":64.877,"OBJECTID":3,"Shape_Area":6.39682713554E7,"Shape_Leng":37422.3099649,"XA_MOI":"Củ Chi","area_km2":64.2313115228001,"diff_max":0.9937749356031418,"diff_mean":0.029214565782275048,"diff_min":-0.9615064561367035,"diff_stdDev":0.1725627736881058,"period":"2019_2025","xa_name":"Củ Chi"}},{"type":"Feature","geometry":{"type":"MultiPoint","coordinates":[]},"id":"00000000000000000003","properties":{"DAN_SO":40239,"DT_KM2":62.056,"OBJECTID":4,"Shape_Area":6.18775951106E7,"Shape_Leng":40792.3929424,"XA_MOI":"Nhuận Đức","area_km2":62.1329590832498,"diff_max":1.0215151011943817,"diff_mean":0.015739985479024183,"diff_min":-0.9297937303781509,"diff_stdDev":0.16918587713256586,"period":"2019_2025","xa_name":"Nhuận Đức"}},{"type":"Feature","geometry":{"type":"MultiPoint","coordinates":[]},"id":"00000000000000000004","properties":{"DAN_SO":97766,"DT_KM2":59.075,"OBJECTID":5,"Shape_Area":5.93669067075E7,"Shape_Leng":48438.2013139,"XA_MOI":"Phú Hòa Đông","area_km2":59.609127551109395,"diff_max":0.9373598396778107,"diff_mean":0.04667075822700848,"diff_min":-0.7337991744279861,"diff_stdDev":0.14277766288425858,"period":"2019_2025","xa_name":"Phú Hòa Đông"}},{"type":"Feature","geometry":{"type":"MultiPoint","coordinates":[]},"id":"00000000000000000005","properties":{"DAN_SO":84342,"DT_KM2":53.508,"OBJECTID":6,"Shape_Area":5.27078163182E7,"Shape_Leng":40995.4829881,"XA_MOI":"Tân An Hội","area_km2":52.92711879383533,"diff_max":0.9158978164196014,"diff_mean":0.012217166269208731,"diff_min":-0.8553162217140198,"diff_stdDev":0.1351920617030774,"period":"2019_2025","xa_name":"Tân An Hội"}},{"type":"Feature","geometry":{"type":"MultiPoint","coordinates":[]},"id":"00000000000000000006","properties":{"DAN_SO":49862,"DT_KM2":62.445,"OBJECTID":7,"Shape_Area":6.26979176182E7,"Shape_Leng":50253.2798163,"XA_MOI":"Thái Mỹ","area_km2":62.96127112290408,"diff_max":0.7661906257271767,"diff_mean":-0.008469829715441706,"diff_min":-0.8147183209657669,"diff_stdDev":0.15460483564424315,"period":"2019_2025","xa_name":"Thái Mỹ"}}]}